[{"OBJECT_NAME":"RESURS-P 4","OBJECT_ID":"2024-061A","EPOCH":"2026-03-10T00:09:50.865408","MEAN_MOTION":15.32930455,"ECCENTRICITY":0.00024315,"INCLINATION":97.2654,"RA_OF_ASC_NODE":18.6595,"ARG_OF_PERICENTER":59.481,"MEAN_ANOMALY":300.6672,"EPHEMERIS_TYPE":0,"CLASSIFICATION_TYPE":"U","NORAD_CAT_ID":59371,"ELEMENT_SET_NO":999,"REV_AT_EPOCH":10857,"BSTAR":0.00016169192,"MEAN_MOTION_DOT":5.066e-5,"MEAN_MOTION_DDOT":0},{"OBJECT_NAME":"STARLINK-33614","OBJECT_ID":"2025-063K","EPOCH":"2026-03-09T22:32:32.106336","MEAN_MOTION":15.30211631,"ECCENTRICITY":0.00014776,"INCLINATION":53.1615,"RA_OF_ASC_NODE":48.7489,"ARG_OF_PERICENTER":67.0308,"MEAN_ANOMALY":293.0849,"EPHEMERIS_TYPE":0,"CLASSIFICATION_TYPE":"U","NORAD_CAT_ID":63372,"ELEMENT_SET_NO":999,"REV_AT_EPOCH":5483,"BSTAR":0.00097506618,"MEAN_MOTION_DOT":0.00028641,"MEAN_MOTION_DDOT":0}]
